[{"OBJECT_NAME":"STARLINK-34567","OBJECT_ID":"2025-150F","EPOCH":"2026-03-09T13:47:10.199040","MEAN_MOTION":14.98328246,"ECCENTRICITY":0.0003505,"INCLINATION":70.002,"RA_OF_ASC_NODE":134.5852,"ARG_OF_PERICENTER":264.9582,"MEAN_ANOMALY":95.1177,"EPHEMERIS_TYPE":0,"CLASSIFICATION_TYPE":"U","NORAD_CAT_ID":64795,"ELEMENT_SET_NO":999,"REV_AT_EPOCH":3650,"BSTAR":0.0014222,"MEAN_MOTION_DOT":0.00016917,"MEAN_MOTION_DDOT":0},{"OBJECT_NAME":"FENGYUN 1C DEB","OBJECT_ID":"1999-025AQU","EPOCH":"2026-03-09T01:25:03.420768","MEAN_MOTION":14.74992504,"ECCENTRICITY":0.01405011,"INCLINATION":99.0317,"RA_OF_ASC_NODE":276.8472,"ARG_OF_PERICENTER":211.6472,"MEAN_ANOMALY":309.6318,"EPHEMERIS_TYPE":0,"CLASSIFICATION_TYPE":"U","NORAD_CAT_ID":30686,"ELEMENT_SET_NO":999,"REV_AT_EPOCH":874,"BSTAR":0.0010181927,"MEAN_MOTION_DOT":7.973e-5,"MEAN_MOTION_DDOT":0}]
